STARLINK-35964          
1 66796U 25278F   25354.86292546  .00271388  00000+0  13137-2 0  9994
2 66796  42.9912 201.1940 0001352 261.4587  98.6131 15.80968226  3136
STARLINK-36099          
1 66797U 25278G   25354.83335647 -.01964745  00000+0 -25861-1 0  9997
2 66797  42.9992 202.9792 0001314 260.0299  18.7338 15.60992550  4310
STARLINK-36041          
1 66798U 25278H   25354.83335647 -.01961341  00000+0 -25812-1 0  9993
2 66798  42.9992 202.9740 0001321 255.7491  24.9314 15.60990814  4108
STARLINK-36044          
1 66799U 25278J   25354.83335647 -.01955929  00000+0 -25734-1 0  9992
2 66799  42.9993 202.9700 0001412 255.6494  26.9494 15.60986429  4253
STARLINK-35996          
1 66800U 25278K   25354.83335647 -.01958634  00000+0 -25773-1 0  9994
2 66800  42.9989 202.9600 0001269 258.5296  27.9028 15.60989639  4050
STARLINK-36080          
1 66801U 25278L   25354.83335647 -.01964959  00000+0 -25863-1 0  9992
2 66801  42.9990 202.9343 0001393 256.5415  39.4752 15.60993094  4250
STARLINK-35604          
1 66802U 25278M   25354.83335647 -.01961672  00000+0 -25817-1 0  9991
2 66802  42.9991 202.9639 0001268 262.5682  21.9470 15.60991396  4250
STARLINK-35565          
1 66803U 25278N   25354.83335647 -.01962384  00000+0 -25826-1 0  9993
2 66803  42.9990 202.9543 0001313 258.4975  29.8498 15.60992652  4347
STARLINK-36038          
1 66804U 25278P   25354.83335647 -.01964878  00000+0 -25860-1 0  9992
2 66804  42.9989 202.9506 0001440 252.2506  38.0129 15.60993890  4256
STARLINK-36049          
1 66805U 25278Q   25354.83335647 -.01961104  00000+0 -25807-1 0  9993
2 66805  42.9989 202.9394 0001393 260.4889  33.6105 15.60991415  4250
STARLINK-36069          
1 66806U 25278R   25354.83335647 -.01963667  00000+0 -25844-1 0  9991
2 66806  42.9990 202.9445 0001351 260.8291  31.3526 15.60993282  4059
STARLINK-36000          
1 66807U 25278S   25354.83335647 -.01960738  00000+0 -25803-1 0  9993
2 66807  42.9990 202.9310 0001399 254.8559  43.0789 15.60989592  4312
