CCSDS_OMM_VERS = 2.0
CREATION_DATE  = 
ORIGINATOR     = 

OBJECT_NAME    = STARLINK-35964
OBJECT_ID      = 2025-278F
CENTER_NAME    = EARTH
REF_FRAME      = TEME
TIME_SYSTEM    = UTC
MEAN_ELEMENT_THEORY = SGP/SGP4

EPOCH          = 2025-12-20T20:42:36.759744
MEAN_MOTION    = 15.80968226
ECCENTRICITY   = .0001352
INCLINATION    = 42.9912
RA_OF_ASC_NODE = 201.1940
ARG_OF_PERICENTER = 261.4587
MEAN_ANOMALY   = 98.6131

EPHEMERIS_TYPE = 0
CLASSIFICATION_TYPE = U
NORAD_CAT_ID   = 66796
ELEMENT_SET_NO = 999
REV_AT_EPOCH   = 313
BSTAR          = .13137E-2
MEAN_MOTION_DOT = .271388E-2
MEAN_MOTION_DDOT = 0

CCSDS_OMM_VERS = 2.0
CREATION_DATE  = 
ORIGINATOR     = 

OBJECT_NAME    = STARLINK-36099
OBJECT_ID      = 2025-278G
CENTER_NAME    = EARTH
REF_FRAME      = TEME
TIME_SYSTEM    = UTC
MEAN_ELEMENT_THEORY = SGP/SGP4

EPOCH          = 2025-12-20T20:00:01.999008
MEAN_MOTION    = 15.60992550
ECCENTRICITY   = .0001314
INCLINATION    = 42.9992
RA_OF_ASC_NODE = 202.9792
ARG_OF_PERICENTER = 260.0299
MEAN_ANOMALY   = 18.7338

EPHEMERIS_TYPE = 0
CLASSIFICATION_TYPE = U
NORAD_CAT_ID   = 66797
ELEMENT_SET_NO = 999
REV_AT_EPOCH   = 431
BSTAR          = -.25861E-1
MEAN_MOTION_DOT = -.1964745E-1
MEAN_MOTION_DDOT = 0

CCSDS_OMM_VERS = 2.0
CREATION_DATE  = 
ORIGINATOR     = 

OBJECT_NAME    = STARLINK-36041
OBJECT_ID      = 2025-278H
CENTER_NAME    = EARTH
REF_FRAME      = TEME
TIME_SYSTEM    = UTC
MEAN_ELEMENT_THEORY = SGP/SGP4

EPOCH          = 2025-12-20T20:00:01.999008
MEAN_MOTION    = 15.60990814
ECCENTRICITY   = .0001321
INCLINATION    = 42.9992
RA_OF_ASC_NODE = 202.9740
ARG_OF_PERICENTER = 255.7491
MEAN_ANOMALY   = 24.9314

EPHEMERIS_TYPE = 0
CLASSIFICATION_TYPE = U
NORAD_CAT_ID   = 66798
ELEMENT_SET_NO = 999
REV_AT_EPOCH   = 410
BSTAR          = -.25812E-1
MEAN_MOTION_DOT = -.1961341E-1
MEAN_MOTION_DDOT = 0

CCSDS_OMM_VERS = 2.0
CREATION_DATE  = 
ORIGINATOR     = 

OBJECT_NAME    = STARLINK-36044
OBJECT_ID      = 2025-278J
CENTER_NAME    = EARTH
REF_FRAME      = TEME
TIME_SYSTEM    = UTC
MEAN_ELEMENT_THEORY = SGP/SGP4

EPOCH          = 2025-12-20T20:00:01.999008
MEAN_MOTION    = 15.60986429
ECCENTRICITY   = .0001412
INCLINATION    = 42.9993
RA_OF_ASC_NODE = 202.9700
ARG_OF_PERICENTER = 255.6494
MEAN_ANOMALY   = 26.9494

EPHEMERIS_TYPE = 0
CLASSIFICATION_TYPE = U
NORAD_CAT_ID   = 66799
ELEMENT_SET_NO = 999
REV_AT_EPOCH   = 425
BSTAR          = -.25734E-1
MEAN_MOTION_DOT = -.1955929E-1
MEAN_MOTION_DDOT = 0

CCSDS_OMM_VERS = 2.0
CREATION_DATE  = 
ORIGINATOR     = 

OBJECT_NAME    = STARLINK-35996
OBJECT_ID      = 2025-278K
CENTER_NAME    = EARTH
REF_FRAME      = TEME
TIME_SYSTEM    = UTC
MEAN_ELEMENT_THEORY = SGP/SGP4

EPOCH          = 2025-12-20T20:00:01.999008
MEAN_MOTION    = 15.60989639
ECCENTRICITY   = .0001269
INCLINATION    = 42.9989
RA_OF_ASC_NODE = 202.9600
ARG_OF_PERICENTER = 258.5296
MEAN_ANOMALY   = 27.9028

EPHEMERIS_TYPE = 0
CLASSIFICATION_TYPE = U
NORAD_CAT_ID   = 66800
ELEMENT_SET_NO = 999
REV_AT_EPOCH   = 405
BSTAR          = -.25773E-1
MEAN_MOTION_DOT = -.1958634E-1
MEAN_MOTION_DDOT = 0

CCSDS_OMM_VERS = 2.0
CREATION_DATE  = 
ORIGINATOR     = 

OBJECT_NAME    = STARLINK-36080
OBJECT_ID      = 2025-278L
CENTER_NAME    = EARTH
REF_FRAME      = TEME
TIME_SYSTEM    = UTC
MEAN_ELEMENT_THEORY = SGP/SGP4

EPOCH          = 2025-12-20T20:00:01.999008
MEAN_MOTION    = 15.60993094
ECCENTRICITY   = .0001393
INCLINATION    = 42.9990
RA_OF_ASC_NODE = 202.9343
ARG_OF_PERICENTER = 256.5415
MEAN_ANOMALY   = 39.4752

EPHEMERIS_TYPE = 0
CLASSIFICATION_TYPE = U
NORAD_CAT_ID   = 66801
ELEMENT_SET_NO = 999
REV_AT_EPOCH   = 425
BSTAR          = -.25863E-1
MEAN_MOTION_DOT = -.1964959E-1
MEAN_MOTION_DDOT = 0

CCSDS_OMM_VERS = 2.0
CREATION_DATE  = 
ORIGINATOR     = 

OBJECT_NAME    = STARLINK-35604
OBJECT_ID      = 2025-278M
CENTER_NAME    = EARTH
REF_FRAME      = TEME
TIME_SYSTEM    = UTC
MEAN_ELEMENT_THEORY = SGP/SGP4

EPOCH          = 2025-12-20T20:00:01.999008
MEAN_MOTION    = 15.60991396
ECCENTRICITY   = .0001268
INCLINATION    = 42.9991
RA_OF_ASC_NODE = 202.9639
ARG_OF_PERICENTER = 262.5682
MEAN_ANOMALY   = 21.9470

EPHEMERIS_TYPE = 0
CLASSIFICATION_TYPE = U
NORAD_CAT_ID   = 66802
ELEMENT_SET_NO = 999
REV_AT_EPOCH   = 425
BSTAR          = -.25817E-1
MEAN_MOTION_DOT = -.1961672E-1
MEAN_MOTION_DDOT = 0

CCSDS_OMM_VERS = 2.0
CREATION_DATE  = 
ORIGINATOR     = 

OBJECT_NAME    = STARLINK-35565
OBJECT_ID      = 2025-278N
CENTER_NAME    = EARTH
REF_FRAME      = TEME
TIME_SYSTEM    = UTC
MEAN_ELEMENT_THEORY = SGP/SGP4

EPOCH          = 2025-12-20T20:00:01.999008
MEAN_MOTION    = 15.60992652
ECCENTRICITY   = .0001313
INCLINATION    = 42.9990
RA_OF_ASC_NODE = 202.9543
ARG_OF_PERICENTER = 258.4975
MEAN_ANOMALY   = 29.8498

EPHEMERIS_TYPE = 0
CLASSIFICATION_TYPE = U
NORAD_CAT_ID   = 66803
ELEMENT_SET_NO = 999
REV_AT_EPOCH   = 434
BSTAR          = -.25826E-1
MEAN_MOTION_DOT = -.1962384E-1
MEAN_MOTION_DDOT = 0

CCSDS_OMM_VERS = 2.0
CREATION_DATE  = 
ORIGINATOR     = 

OBJECT_NAME    = STARLINK-36038
OBJECT_ID      = 2025-278P
CENTER_NAME    = EARTH
REF_FRAME      = TEME
TIME_SYSTEM    = UTC
MEAN_ELEMENT_THEORY = SGP/SGP4

EPOCH          = 2025-12-20T20:00:01.999008
MEAN_MOTION    = 15.60993890
ECCENTRICITY   = .000144
INCLINATION    = 42.9989
RA_OF_ASC_NODE = 202.9506
ARG_OF_PERICENTER = 252.2506
MEAN_ANOMALY   = 38.0129

EPHEMERIS_TYPE = 0
CLASSIFICATION_TYPE = U
NORAD_CAT_ID   = 66804
ELEMENT_SET_NO = 999
REV_AT_EPOCH   = 425
BSTAR          = -.2586E-1
MEAN_MOTION_DOT = -.1964878E-1
MEAN_MOTION_DDOT = 0

CCSDS_OMM_VERS = 2.0
CREATION_DATE  = 
ORIGINATOR     = 

OBJECT_NAME    = STARLINK-36049
OBJECT_ID      = 2025-278Q
CENTER_NAME    = EARTH
REF_FRAME      = TEME
TIME_SYSTEM    = UTC
MEAN_ELEMENT_THEORY = SGP/SGP4

EPOCH          = 2025-12-20T20:00:01.999008
MEAN_MOTION    = 15.60991415
ECCENTRICITY   = .0001393
INCLINATION    = 42.9989
RA_OF_ASC_NODE = 202.9394
ARG_OF_PERICENTER = 260.4889
MEAN_ANOMALY   = 33.6105

EPHEMERIS_TYPE = 0
CLASSIFICATION_TYPE = U
NORAD_CAT_ID   = 66805
ELEMENT_SET_NO = 999
REV_AT_EPOCH   = 425
BSTAR          = -.25807E-1
MEAN_MOTION_DOT = -.1961104E-1
MEAN_MOTION_DDOT = 0

CCSDS_OMM_VERS = 2.0
CREATION_DATE  = 
ORIGINATOR     = 

OBJECT_NAME    = STARLINK-36069
OBJECT_ID      = 2025-278R
CENTER_NAME    = EARTH
REF_FRAME      = TEME
TIME_SYSTEM    = UTC
MEAN_ELEMENT_THEORY = SGP/SGP4

EPOCH          = 2025-12-20T20:00:01.999008
MEAN_MOTION    = 15.60993282
ECCENTRICITY   = .0001351
INCLINATION    = 42.9990
RA_OF_ASC_NODE = 202.9445
ARG_OF_PERICENTER = 260.8291
MEAN_ANOMALY   = 31.3526

EPHEMERIS_TYPE = 0
CLASSIFICATION_TYPE = U
NORAD_CAT_ID   = 66806
ELEMENT_SET_NO = 999
REV_AT_EPOCH   = 405
BSTAR          = -.25844E-1
MEAN_MOTION_DOT = -.1963667E-1
MEAN_MOTION_DDOT = 0

CCSDS_OMM_VERS = 2.0
CREATION_DATE  = 
ORIGINATOR     = 

OBJECT_NAME    = STARLINK-36000
OBJECT_ID      = 2025-278S
CENTER_NAME    = EARTH
REF_FRAME      = TEME
TIME_SYSTEM    = UTC
MEAN_ELEMENT_THEORY = SGP/SGP4

EPOCH          = 2025-12-20T20:00:01.999008
MEAN_MOTION    = 15.60989592
ECCENTRICITY   = .0001399
INCLINATION    = 42.9990
RA_OF_ASC_NODE = 202.9310
ARG_OF_PERICENTER = 254.8559
MEAN_ANOMALY   = 43.0789

EPHEMERIS_TYPE = 0
CLASSIFICATION_TYPE = U
NORAD_CAT_ID   = 66807
ELEMENT_SET_NO = 999
REV_AT_EPOCH   = 431
BSTAR          = -.25803E-1
MEAN_MOTION_DOT = -.1960738E-1
MEAN_MOTION_DDOT = 0

